     2.10           N: GPS NAV DATA                         RINEX VERSION / TYPE
teqc  2008Oct2      gpsops              20090109 00:05:38UTCPGM / RUN BY / DATE
Linux 2.4.20-8|Pentium IV|gcc -static|Linux|486/DX+         COMMENT
soc2rnx ver 1.20    gpsops               9-Jan-2009 00:05:33COMMENT
Forced Modulo Decimation to 30 seconds                      COMMENT
MADR                                    MARKER NAME         COMMENT
13407S012                               MARKER NUMBER       COMMENT
4849202.3940 -360328.9929 4114913.1862                      COMMENT
                                                            COMMENT
This data is provided as a public service by NASA/JPL.      COMMENT
No warranty is expressed or implied regarding suitability   COMMENT
for use.  For further information, contact:                 COMMENT
Dave Stowers, NASA/JPL m/s 238-600                          COMMENT
4800 Oak Grove Drive, Pasadena CA 91109 USA                 COMMENT
                                                            END OF HEADER
 6 09  1  8 12  0  0.0 9.883986786008D-05-1.170974428533D-11 0.000000000000D+00
    8.300000000000D+01 7.312500000000D+00 5.615591054765D-09-2.458331309447D+00
    4.488974809647D-07 5.635827779770D-03 5.247071385384D-06 5.153700830460D+03
    3.888000000000D+05 3.352761268616D-08 1.017800034405D+00 1.024454832077D-07
    9.333704794498D-01 2.606562500000D+02-1.486559315265D+00-8.333204254263D-09
    2.032227507576D-10 1.000000000000D+00 1.513000000000D+03 0.000000000000D+00
    2.000000000000D+00 0.000000000000D+00-4.656612873077D-09 8.300000000000D+01
    3.816000000000D+05
19 09  1  8 12  0  0.0 3.407942131162D-05-4.547473508865D-13 0.000000000000D+00
    2.300000000000D+01-1.593750000000D+00 5.104855494865D-09 1.963179078792D+00
    1.210719347000D-07 5.038692033850D-03 5.664303898811D-06 5.153760898590D+03
    3.888000000000D+05 1.136213541031D-07 1.133707632159D+00 6.332993507385D-08
    9.570415326442D-01 2.662187500000D+02-3.969005809595D-01-8.149625178886D-09
   -7.250302004180D-11 1.000000000000D+00 1.513000000000D+03 0.000000000000D+00
    2.000000000000D+00 0.000000000000D+00-1.443549990654D-08 2.300000000000D+01
    3.816000000000D+05
16 09  1  8 11 59 44.0 8.345860987902D-05-2.614797267597D-12 0.000000000000D+00
    4.000000000000D+00-4.268750000000D+01 4.245176828655D-09-2.505150295348D+00
   -2.127140760422D-06 4.935353994370D-03 1.063942909241D-05 5.153742952347D+03
    3.887840000000D+05-6.891787052155D-08 3.570169210164D-02-3.725290298462D-09
    9.676842338754D-01 1.793750000000D+02-3.851548614402D-01-7.599959425958D-09
    5.653806932324D-10 1.000000000000D+00 1.513000000000D+03 0.000000000000D+00
    2.000000000000D+00 0.000000000000D+00-9.778887033463D-09 4.000000000000D+00
    3.816000000000D+05
18 09  1  8 12  0  0.0-9.511271491647D-05 3.637978807092D-12 0.000000000000D+00
    6.900000000000D+01 1.662812500000D+02 4.449113894881D-09-2.374678043192D+00
    8.514150977135D-06 9.888831409626D-03 8.083879947662D-06 5.153758058548D+03
    3.888000000000D+05 4.470348358154D-08-3.094486742640D+00-1.341104507446D-07
    9.447951981695D-01 2.148437500000D+02-2.438488705551D+00-7.938902115711D-09
    1.685784505406D-10 1.000000000000D+00 1.513000000000D+03 0.000000000000D+00
    2.000000000000D+00 0.000000000000D+00-1.071020960808D-08 6.900000000000D+01
    3.816000000000D+05
21 09  1  8 12  0  0.0 3.482075408101D-05-1.705302565824D-12 0.000000000000D+00
    3.300000000000D+01 2.637500000000D+01 5.019137638658D-09-1.114746976223D+00
    1.238659024239D-06 1.452747441363D-02 9.719282388687D-06 5.153649824142D+03
    3.888000000000D+05 3.203749656677D-07 2.130543517986D+00-1.545995473862D-07
    9.345265212036D-01 1.753125000000D+02-2.656472977608D+00-8.046763751438D-09
   -6.861000073907D-10 1.000000000000D+00 1.513000000000D+03 0.000000000000D+00
    2.000000000000D+00 0.000000000000D+00-1.164153218269D-08 3.300000000000D+01
    3.816000000000D+05
22 09  1  8 12  0  0.0 2.069366164505D-04-6.821210263297D-13 0.000000000000D+00
    5.200000000000D+01 1.591875000000D+02 4.554118268734D-09 2.756226767680D+00
    8.173286914825D-06 4.962599137798D-03 7.741153240204D-06 5.153675062180D+03
    3.888000000000D+05 3.352761268616D-08-3.088496635848D+00-2.048909664154D-08
    9.424525265078D-01 2.196562500000D+02-1.813701566327D+00-7.988547040764D-09
    7.821754378894D-11 1.000000000000D+00 1.513000000000D+03 0.000000000000D+00
    2.000000000000D+00 0.000000000000D+00-1.816079020500D-08 5.200000000000D+01
    3.816000000000D+05
24 09  1  8 12  0  0.0 1.559411175549D-04 3.069544618484D-12 0.000000000000D+00
    6.100000000000D+01 3.340625000000D+01 4.592691304027D-09-2.491083036019D+00
    1.618638634682D-06 7.055986206979D-03 1.059286296368D-05 5.153665735245D+03
    3.888000000000D+05-9.313225746155D-08 2.160312462851D+00 8.009374141693D-08
    9.511951663310D-01 1.704375000000D+02-6.439172069249D-01-7.781038397196D-09
   -7.739608100029D-10 1.000000000000D+00 1.513000000000D+03 0.000000000000D+00
    2.000000000000D+00 0.000000000000D+00-1.396983861923D-09 6.100000000000D+01
    3.816000000000D+05
25 09  1  8 12  0  0.0 1.593143679202D-04 2.683009370230D-11 0.000000000000D+00
    9.400000000000D+01-1.369375000000D+02 4.265534819504D-09-1.959755835857D+00
   -6.904825568199D-06 1.177892868873D-02 5.748122930527D-06 5.153682018280D+03
    3.888000000000D+05-2.607703208923D-08-1.126706512923D+00 3.110617399216D-07
    9.677672222922D-01 2.698437500000D+02-1.239870634572D+00-7.948188216800D-09
   -1.421487782100D-10 1.000000000000D+00 1.513000000000D+03 0.000000000000D+00
    2.000000000000D+00 0.000000000000D+00-7.450580596924D-09 9.400000000000D+01
    3.816000000000D+05
31 09  1  8 12  0  0.0-4.686275497079D-05-1.591615728103D-12 0.000000000000D+00
    3.600000000000D+01-1.432500000000D+02 4.253748614275D-09-2.541314943968D-01
   -7.649883627892D-06 7.104315329343D-03 5.727633833885D-06 5.153618303299D+03
    3.888000000000D+05-1.210719347000D-07-1.034692836618D+00-6.146728992462D-08
    9.708832787627D-01 2.751250000000D+02-1.212704792971D+00-8.074264896971D-09
   -7.786038605475D-11 1.000000000000D+00 1.513000000000D+03 0.000000000000D+00
    2.000000000000D+00 0.000000000000D+00-1.303851604462D-08 3.600000000000D+01
    3.816000000000D+05
 7 09  1  8 12  0  0.0 2.341670915484D-05-1.136868377216D-13 0.000000000000D+00
    1.900000000000D+01-1.376875000000D+02 4.319822795102D-09-1.768900591067D-01
   -7.236376404762D-06 2.300890977494D-03 6.552785634995D-06 5.153684009552D+03
    3.888000000000D+05 3.352761268616D-08-1.031908925457D+00 3.725290298462D-09
    9.654665466198D-01 2.545937500000D+02 2.911551559318D+00-8.031763126602D-09
   -9.928985010651D-11 1.000000000000D+00 1.513000000000D+03 0.000000000000D+00
    2.000000000000D+00 0.000000000000D+00-1.071020960808D-08 1.900000000000D+01
    3.825000000000D+05
11 09  1  8 12  0  0.0 1.112418249249D-05-1.023181539495D-12 0.000000000000D+00
    8.500000000000D+01-1.093750000000D+00 6.365265138843D-09-3.263707109930D-01
   -2.421438694000D-08 9.125011158176D-03 7.722526788712D-06 5.153660484314D+03
    3.888000000000D+05 2.607703208923D-08 1.904780726174D+00 1.620501279831D-07
    8.896103455331D-01 1.905625000000D+02 6.749615939910D-01-8.929300512636D-09
   -6.257403503115D-10 1.000000000000D+00 1.513000000000D+03 0.000000000000D+00
    2.000000000000D+00 0.000000000000D+00-1.210719347000D-08 8.500000000000D+01
    3.866700000000D+05
 3 09  1  8 14  0  0.0 3.360342234373D-04 5.229594535194D-12 0.000000000000D+00
    6.200000000000D+01 1.075000000000D+01 5.740953419468D-09 2.332688622393D+00
    3.837049007416D-07 1.157559093554D-02 5.902722477913D-06 5.153714145660D+03
    3.960000000000D+05-7.450580596924D-08 9.512642043610D-01-2.514570951462D-07
    9.259078958718D-01 2.466250000000D+02 8.871471191813D-01-8.304988793262D-09
    2.814402945465D-10 1.000000000000D+00 1.513000000000D+03 0.000000000000D+00
    2.000000000000D+00 0.000000000000D+00-4.190951585770D-09 6.200000000000D+01
    3.888000000000D+05
 6 09  1  8 14  0  0.0 9.875511750579D-05-1.182343112305D-11 0.000000000000D+00
    8.700000000000D+01 1.312500000000D+01 5.647735250843D-09-1.408371897165D+00
    8.307397365570D-07 5.636358982883D-03 5.822628736496D-06 5.153698345184D+03
    3.960000000000D+05-7.078051567078D-08 1.017739911398D+00 1.173466444016D-07
    9.333716117484D-01 2.533437500000D+02-1.486345616581D+00-8.409993167115D-09
    2.017941198208D-10 1.000000000000D+00 1.513000000000D+03 0.000000000000D+00
    2.000000000000D+00 0.000000000000D+00-4.656612873077D-09 8.700000000000D+01
    3.888000000000D+05
 7 09  1  8 14  0  0.0 2.341577783227D-05-1.136868377216D-13 0.000000000000D+00
    4.700000000000D+01-1.354375000000D+02 4.244105355452D-09 8.729718511473D-01
   -7.098540663719D-06 2.303232206032D-03 5.682930350304D-06 5.153688625336D+03
    3.960000000000D+05 2.607703208923D-08-1.031966757535D+00 2.607703208923D-08
    9.654658078462D-01 2.720937500000D+02 2.911860944548D+00-8.032477442070D-09
   -1.046472161195D-10 1.000000000000D+00 1.513000000000D+03 0.000000000000D+00
    2.000000000000D+00 0.000000000000D+00-1.071020960808D-08 4.700000000000D+01
    3.888000000000D+05
11 09  1  8 14  0  0.0 1.111673191190D-05-1.023181539495D-12 0.000000000000D+00
    8.600000000000D+01-1.021875000000D+01 6.412409959756D-09 7.238397321788D-01
   -2.980232238770D-07 9.123757132329D-03 7.819384336472D-06 5.153658107758D+03
    3.960000000000D+05-1.396983861923D-07 1.904717106793D+00 1.359730958939D-07
    8.896057753771D-01 1.894375000000D+02 6.749542823265D-01-8.867155066886D-09
   -7.218157808103D-10 1.000000000000D+00 1.513000000000D+03 0.000000000000D+00
    2.000000000000D+00 0.000000000000D+00-1.210719347000D-08 8.600000000000D+01
    3.888000000000D+05
